{
    "links": {
        "self": "http://www.neowsapp.com/rest/v1/neo/3843600?api_key=iIulBulltgU6a56xZRHN4H3l9WmuAYTsLGpBGhQ2"
    },
    "id": "3843600",
    "neo_reference_id": "3843600",
    "name": "(2019 QN1)",
    "designation": "2019 QN1",
    "nasa_jpl_url": "http://ssd.jpl.nasa.gov/sbdb.cgi?sstr=3843600",
    "absolute_magnitude_h": 23.7,
    "estimated_diameter": {
        "kilometers": {
            "estimated_diameter_min": 0.0483676488,
            "estimated_diameter_max": 0.1081533507
        },
        "meters": {
            "estimated_diameter_min": 48.3676488219,
            "estimated_diameter_max": 108.1533506775
        },
        "miles": {
            "estimated_diameter_min": 0.0300542543,
            "estimated_diameter_max": 0.0672033557
        },
        "feet": {
            "estimated_diameter_min": 158.6865169607,
            "estimated_diameter_max": 354.8338390368
        }
    },
    "is_potentially_hazardous_asteroid": false,
    "close_approach_data": [
        {
            "close_approach_date": "1998-09-04",
            "close_approach_date_full": "1998-Sep-04 18:35",
            "epoch_date_close_approach": 904934100000,
            "relative_velocity": {
                "kilometers_per_second": "7.1249027538",
                "kilometers_per_hour": "25649.6499138584",
                "miles_per_hour": "15937.6949700861"
            },
            "miss_distance": {
                "astronomical": "0.1600645477",
                "lunar": "62.2651090553",
                "kilometers": "23945315.398433399",
                "miles": "14878929.0434789462"
            },
            "orbiting_body": "Earth"
        },
        {
            "close_approach_date": "2004-12-22",
            "close_approach_date_full": "2004-Dec-22 10:38",
            "epoch_date_close_approach": 1103711880000,
            "relative_velocity": {
                "kilometers_per_second": "3.5291563329",
                "kilometers_per_hour": "12704.9627984657",
                "miles_per_hour": "7894.36980108"
            },
            "miss_distance": {
                "astronomical": "1.7275676579",
                "lunar": "672.0238189231",
                "kilometers": "258440441.902728673",
                "miles": "160587444.0596267674"
            },
            "orbiting_body": "Juptr"
        },
        {
            "close_approach_date": "2019-09-12",
            "close_approach_date_full": "2019-Sep-12 22:54",
            "epoch_date_close_approach": 1568328840000,
            "relative_velocity": {
                "kilometers_per_second": "5.7261234902",
                "kilometers_per_hour": "20614.0445645748",
                "miles_per_hour": "12808.7656351382"
            },
            "miss_distance": {
                "astronomical": "0.1955110725",
                "lunar": "76.0538072025",
                "kilometers": "29248040.007415575",
                "miles": "18173889.326161935"
            },
            "orbiting_body": "Earth"
        }
    ],
    "orbital_data": {
        "orbit_id": "8",
        "orbit_determination_date": "2019-10-07 05:57:44",
        "first_observation_date": "2019-08-22",
        "last_observation_date": "2019-10-05",
        "data_arc_in_days": 44,
        "observations_used": 32,
        "orbit_uncertainty": "6",
        "minimum_orbit_intersection": ".183719",
        "jupiter_tisserand_invariant": "3.164",
        "epoch_osculation": "2459000.5",
        "eccentricity": ".5522077090356362",
        "semi_major_axis": "2.611225890103717",
        "inclination": "7.411171909464406",
        "ascending_node_longitude": "315.1767103236251",
        "orbital_period": "1541.221616141801",
        "perihelion_distance": "1.169286823555003",
        "perihelion_argument": "41.05055086689642",
        "aphelion_distance": "4.05316495665243",
        "perihelion_time": "2458749.670993972253",
        "mean_anomaly": "58.58887600865369",
        "mean_motion": ".2335809439924686",
        "equinox": "J2000",
        "orbit_class": {
            "orbit_class_type": "AMO",
            "orbit_class_description": "Near-Earth asteroid orbits similar to that of 1221 Amor",
            "orbit_class_range": "1.017 AU < q (perihelion) < 1.3 AU"
        }
    },
    "is_sentry_object": false
}